Satellite: BEESAT-2
Catalog number: 39136
Epoch time:      13169.87826419
Element set:     151
Inclination:      064.8804 deg
RA of node:       203.2717 deg
Eccentricity:    0.0013615
Arg of perigee:   203.6641 deg
Mean anomaly:     156.4385 deg
Mean motion:   15.00311172 rev/day
Decay rate:      1.930e-05 rev/day^2
Epoch rev:             908
Checksum:              278

/EX



From ray.hoad at mypbmail.com  Thu Jun 20 19:41:15 2013
From: ray.hoad at mypbmail.com (Ray Hoad)
Date: Thu, 20 Jun 2013 21:41:15 -0500
Subject: [keps] orb13171.2l.amsat
Message-ID: <CC9B08FE5DBC43B6818940DF5707B62E@ray45af0265077>

SB KEPS @ AMSAT  $ORB13171.N
2Line Orbital Elements 13171.AMSAT

HR AMSAT ORBITAL ELEMENTS FOR AMATEUR SATELLITES IN NASA FORMAT
FROM WA5QGD FORT WORTH,TX June 20, 2013
BID: ORB13171.N

DECODE 2-LINE ELSETS WITH THE FOLLOWING KEY:
1 AAAAAU 00  0  0 BBBBB.BBBBBBBB  .CCCCCCCC  00000-0  00000-0 0  DDDZ
2 AAAAA EEE.EEEE FFF.FFFF GGGGGGG HHH.HHHH III.IIII JJ.JJJJJJJJKKKKKZ
KEY: A-CATALOGNUM B-EPOCHTIME C-DECAY D-ELSETNUM E-INCLINATION F-RAAN
G-ECCENTRICITY H-ARGPERIGEE I-MNANOM J-MNMOTION K-ORBITNUM Z-CHECKSUM

TO ALL RADIO AMATEURS BT

AO-07
1 07530U 74089B   13168.51973571 -.00000042  00000-0  67332-5 0  7081
2 07530 101.4300 158.0135 0011396 288.4407 188.0230 12.53596869765826
FO-29
1 24278U 96046B   13167.16977339  .00000023  00000-0  57947-4 0  1387
2 24278 098.5562 225.8734 0351141 166.6441 217.6108 13.53002080831171
SO-33
1 25509U 98061B   13169.10753760  .00000170  00000-0  20577-4 0  5207
2 25509 031.4349 062.4078 0351353 166.0205 342.7702 14.29089307765022
RS-22
1 27939U 03042A   13169.20701968  .00000274  00000-0  60025-4 0  5112
2 27939 097.8001 357.0022 0013149 179.2218 180.8999 14.64476470519444
VO-52
1 28650U 05017B   13171.54996581  .00001387  00000-0  16616-3 0  4531
2 28650 097.5661 189.9762 0024467 270.2542 089.6381 14.83923569439588
HO-68
1 36122U 09072B   13169.19001324 -.00000044  00000-0  00000 0 0  6504
2 36122 100.3052 226.2172 0007527 355.0643 005.0396 13.16305129168544
UO-11
1 14781U 84021B   13169.18871715  .00000319  00000-0  48085-4 0  2089
2 14781 097.9031 230.4868 0007416 285.0499 074.9892 14.80914369574086
AO-16
1 20439U 90005D   13168.44255803  .00000019  00000-0  22943-4 0  7736
2 20439 098.4708 108.4637 0011638 153.1975 319.5709 14.32180792222271
LO-19
1 20442U 90005G   13168.81859023  .00000049  00000-0  33983-4 0  7071
2 20442 098.4400 110.6145 0012787 143.4885 269.5551 14.32391755222521
AO-27
1 22825U 93061C   13168.83321876  .00000031  00000-0  29245-4 0  4103
2 22825 098.6180 112.8508 0007215 287.8270 125.1845 14.29569421 28725
IO-26
1 22826U 93061D   13169.12689194  .00000044  00000-0  34231-4 0  1671
2 22826 098.6120 113.4280 0007745 279.0169 207.0176 14.29854280 28897
GO-32
1 25397U 98043D   13168.48812350  .00000010  00000-0  22520-4 0   986
2 25397 098.4141 136.2329 0000341 015.7713 131.7549 14.23345117775980
NO-44
1 26931U 01043C   13168.75432637  .00000008  00000-0  35052-4 0  3525
2 26931 067.0521 258.0469 0007732 280.1523 223.9899 14.29932522611502
SO-50
1 27607U 02058C   13169.73411088  .00000782  00000-0  11923-3 0   941
2 27607 064.5576 259.4345 0045535 163.9866 196.3172 14.72964989563945
CO-55
1 27844U 03031E   13169.04175419  .00000135  00000-0  82056-4 0  6747
2 27844 098.7001 178.1018 0008723 241.9942 151.6618 14.21228283516855
CO-57
1 27848U 03031J   13168.50127009  .00000112  00000-0  71946-4 0  6193
2 27848 098.7088 177.0817 0008571 249.9938 257.4152 14.20952840516707
AO-51
1 28375U 04025K   13168.46828354  .00000088  00000-0  39246-4 0  5849
2 28375 098.2011 123.9155 0083552 016.2194 095.9095 14.41127465471374
CP3
1 31129U 07012N   13167.98055287  .00000534  00000-0  12922-3 0  4871
2 31129 097.8970 160.6295 0101482 068.6085 349.3647 14.53674603326967
CO-65
1 32785U 08021C   13168.78119689  .00000666  00000-0  86341-4 0  6614
2 32785 097.7518 226.2994 0012807 307.4685 119.4871 14.83911356277962
PRISM
1 33493U 09002B   13169.35945904  .00001895  00000-0  22277-3 0  9112
2 33493 098.2175 326.3273 0018119 185.0210 175.0832 14.86034724238096
SOHLA-1
1 33496U 09002E   13169.08904752  .00000175  00000-0  37287-4 0   749
2 33496 098.1355 285.1046 0005425 326.6906 117.9130 14.70303454236006
SO-67
1 35870U 09049F   13169.35527074  .00003444  00000-0  13187-3 0  1639
2 35870 097.1914 198.0612 0001712 021.5525 099.2259 15.27187931208431
TISAT-1
1 36799U 10035E   13169.33231417  .00001188  00000-0  15139-3 0  1809
2 36799 098.0335 254.0284 0015766 067.3025 292.9859 14.83355904158748
STUDSAT
1 36801U 10035G   13168.46505788  .00004768  00000-0  51911-3 0  6452
2 36801 098.0453 256.2989 0012151 055.2011 077.2077 14.88454153158775
ALMASAT-1
1 38078U 12006B   13169.25072768  .00018927  00000-0  47506-3 0  3639
2 38078 069.4724 198.5582 0693875 145.8763 218.9037 14.25128397 69399
XATCOBEO
1 38082U 12006F   13171.13855370  .00054304  00000-0  10551-2 0  2460
2 38082 069.4716 169.0709 0569448 129.6985 235.6359 14.56535105 70357
SOMP
1 39135U 13015F   13169.87914438  .00001889  00000-0  14966-3 0  1363
2 39135 064.8801 203.2741 0013770 202.8847 157.2196 15.00290574  9089
CUBEBUG-1
1 39153U 13018D   13169.35564094  .00000703  00000-0  10836-3 0  1656
2 39153 098.0739 245.1038 0019857 081.0781 279.2673 14.76446174  7857
ESTCUBE-1
1 39161U 13021C   13169.18583131  .00000566  00000-0  10498-3 0  1193
2 39161 098.1251 247.4364 0010911 107.1261 253.1150 14.68973811  6144
NOAA-10
1 16969U 86073A   13171.49981707  .00000043  00000-0  34902-4 0  3974
2 16969 098.5450 199.2669 0011491 231.2515 280.4681 14.27646141392415
NOAA-11
1 19531U 88089A   13171.34757206  .00000030  00000-0  37971-4 0  4033
2 19531 098.7110 254.3062 0010320 249.1694 157.0016 14.15018335276578
NOAA-12
1 21263U 91032A   13171.28307737  .00000044  00000-0  37397-4 0  8685
2 21263 098.6965 196.6453 0013579 206.1334 283.0682 14.25571435148994
MET-3/5
1 21655U 91056A   13169.16157882 -.00000150  00000-0 -42279-3 0  7171
2 21655 082.5568 253.6037 0014582 126.0570 234.1905 13.17049215 50060
MET-2/21
1 22782U 93055A   13168.13603891  .00000061  00000-0  41980-4 0  7679
2 22782 082.5506 102.9636 0021962 205.9104 285.0152 13.83708524999637
OKEAN-4
1 23317U 94066A   13168.47665672  .00000471  00000-0  52925-4 0  2478
2 23317 082.5390 049.5265 0020320 221.4975 265.9917 14.84493116  8988
NOAA-14
1 23455U 94089A   13171.32354830 -.00000054  00000-0 -56401-5 0  3536
2 23455 098.8031 255.7149 0009005 355.5457 045.9996 14.13911117952817
NOAA-15
1 25338U 98030A   13182.45755652  .00000194  00000-0  82344-4 0  7734
2 25338 098.7260 172.5809 0011168 085.3324 274.9656 14.25235658786886
RESURS
1 25394U 98043A   13168.44684343 -.00000041  00000-0  23216-6 0  4016
2 25394 098.3610 144.2735 0000715 185.7737 320.4466 14.24332380776396
FENGYUN1
1 25730U 99025A   13168.81580502  .00000210  00000-0  14214-3 0  8975
2 25730 098.8770 128.3194 0026906 047.7624 008.7318 14.10545200726137
OKEAN-0
1 25860U 99039A   13168.46827623  .00000210  00000-0  38955-4 0  9737
2 25860 097.9898 130.9137 0002076 118.8718 028.4480 14.74617033748399
NOAA-16
1 26536U 00055A   13182.48915883  .00000246  00000-0  13241-3 0  2521
2 26536 099.0428 235.3927 0011014 094.7872 265.5160 14.12891718658591
NOAA-17
1 27453U 02032A   13182.45459615  .00000105  00000-0  45179-4 0  1697
2 27453 098.3150 195.7778 0012027 121.6350 238.6581 14.24598760572758
NOAA-18
1 28654U 05018A   13182.45112366  .00000159  00000-0  87124-4 0  6552
2 28654 099.0989 150.8656 0014069 167.2719 192.9298 14.11831767418074
NOAA-19
1 33591U 09005A   13182.47342801  .00000294  00000-0  16179-3 0  8383
2 33591 098.9002 124.4158 0014671 030.3280 329.9233 14.11521257226517
HUBBLE
1 20580U 90037B   13167.74008509  .00000891  00000-0  51223-4 0  2634
2 20580 028.4696 275.7628 0003325 350.3355 136.2094 15.03692199 69630
ISS
1 25544U 98067A   13171.97590808 -.00000002  00000-0  00000 0 0   374
2 25544 051.6475 089.5575 0008736 082.0390 278.2104 15.50280351239395
CO-58
1 28895U 05043F   13168.15017974  .00000327  00000-0  75218-4 0  5026
2 28895 097.8702 023.4758 0019020 083.7938 276.5429 14.61130523406939
FALCON
1 30776U 07006E   13168.48643999  .00002468  00000-0  14847-3 0  6373
2 30776 035.4295 200.3843 0001882 280.0912 224.6988 15.10695271345462
MAST
1 31126U 07012K   13168.50597749  .00000357  00000-0  88935-4 0  7819
2 31126 097.8806 164.4086 0094169 052.4892 092.5976 14.54584671327365
CAPE1
1 31130U 07012P   13168.45948774  .00000515  00000-0  12541-3 0  7899
2 31130 097.8976 160.7173 0101896 068.0705 293.1287 14.53500738326810
COMPASS
1 32787U 08021E   13169.14754759  .00001231  00000-0  14842-3 0  6525
2 32787 097.7527 227.6865 0013112 301.7244 058.2693 14.85533976278103
AAUSAT2
1 32788U 08021F   13169.15588945  .00001294  00000-0  15396-3 0  6387
2 32788 097.7537 228.3239 0012652 301.0763 058.9211 14.85998346278148
DO-64
1 32789U 08021G   13172.06568596  .00004183  00000-0  44841-3 0  6671
2 32789 097.7668 234.9509 0012121 284.2063 075.8312 14.88647801278705
CO-66
1 32791U 08021J   13169.12305263  .00000997  00000-0  12398-3 0  6375
2 32791 097.7530 227.0244 0013638 303.4388 114.5685 14.84666771278014
RS-30
1 32953U 08025A   13169.26791438  .00000010  00000-0  00000 0 0  9560
2 32953 082.5028 067.5219 0017467 229.3823 130.5745 12.43034511230041
METEOR-M
1 35865U 09049A   13182.44039413  .00000037  00000-0  16724-4 0  5521
2 35865 098.6027 234.5158 0002945 040.7477 319.4530 14.21889044196493
RS-38
1 35869U 09049E   13169.17381593  .00000018  00000-0  27341-4 0  5110
2 35869 098.5952 221.4878 0005536 071.6918 288.4860 14.22132880194634
JUGNU
1 37839U 11058B   13167.81638418  .00000338  00000-0  38512-4 0  4084
2 37839 019.9619 309.0345 0019086 279.9294 203.2144 14.12161098 86842
SRMSAT
1 37841U 11058D   13168.79708756  .00000326  00000-0  34491-4 0  4111
2 37841 019.9725 315.1596 0011757 244.2206 255.9267 14.10230216 86863
RAX-2
1 37853U 11061D   13169.19089973  .00003275  00000-0  25237-3 0  5301
2 37853 101.7140 023.2908 0235078 024.6560 084.7708 14.83693133 88599
AUBIESAT
1 37854U 11061E   13169.14868451  .00003514  00000-0  26461-3 0  5253
2 37854 101.7178 024.0978 0234925 023.4187 092.5580 14.84410882 88605
HRBE
1 37855U 11061F   13168.59834808  .00003743  00000-0  28261-3 0  5244
2 37855 101.7180 023.0523 0236000 025.4653 008.3435 14.84068183 88517
RS-39
1 38051U 11062C   13169.36930036  .00008743  00000-0  28323-3 0  5468
2 38051 051.6355 204.8706 0010979 273.8308 178.9834 15.32746256 77968
E-STAR
1 38079U 12006C   13170.74731714  .00039161  00000-0  80528-3 0  2216
2 38079 069.4733 176.5716 0608527 133.9125 231.4465 14.47120442 70119
GOLIAT
1 38085U 12006J   13169.31926069  .00032607  30304-5  68522-3 0  1350
2 38085 069.4728 182.1776 0619821 136.9218 310.9943 14.44870749 69845
HORYU-2
1 38340U 12025D   13168.85179995  .00000763  00000-0  13274-3 0  5295
2 38340 098.2146 116.5096 0011393 251.5651 108.4315 14.70962564 58212
RS-40
1 38736U 12041D   13168.39468096  .00000010  00000-0  00000 0 0  2992
2 38736 082.4770 154.9948 0020913 330.1476 029.8412 12.42868585 40274
PROITERES
1 38756U 12047B   13169.40456695  .00000381  00000-0  65597-4 0  8821
2 38756 098.2527 246.4715 0013902 101.0932 259.1844 14.74236108 41570
RAIKO
1 38852U 98067CN  13171.80601006  .00184063  00000-0  88984-3 0  2647
2 38852 051.6367 069.5456 0007566 048.6971 311.5208 15.81756712 40445
FITSAT 1
1 38853U 98067CP  13171.72614886  .00484620  11287-3  92280-3 0  2726
2 38853 051.6388 062.9625 0001868 128.0296 232.0604 16.00074145 40572
TechEdSat
1 38854U 98067CQ  13124.93253577  .11592855  12481-4  94246-3 0  2908
2 38854 051.6449 297.0261 0010505 310.8629 049.0629 16.38844728 33294
F 1
1 38855U 98067CR  13129.77714356  .27424026  12535-4  30797-3 0  2871
2 38855 051.5085 272.4145 0008326 194.2908 166.5495 16.49710473 33949
WeWish
1 38856U 98067CS  13069.98095549  .16701328  12537-4  10063-2 0  2487
2 38856 051.6166 215.0521 0008325 316.0438 044.8765 16.41348316 24586
OSSI-1
1 39131U 13015B   13166.46692943  .00469165  87071-4  85875-3 0    48
2 39131 064.8771 194.8097 0130860 024.8474 329.0319 15.87140892  8872
BEESAT-3
1 39134U 13015E   13169.87824958  .00002085  00000-0  16496-3 0  1559
2 39134 064.8798 203.2713 0013398 204.0706 156.0315 15.00337632  9083
BEESAT-2
1 39136U 13015G   13169.87826419  .00001930  00000-0  15278-3 0  1516
2 39136 064.8804 203.2717 0013615 203.6641 156.4385 15.00311172  9084
/EX



From ray.hoad at mypbmail.com  Thu Jun 27 19:56:56 2013
From: ray.hoad at mypbmail.com (Ray Hoad)
Date: Thu, 27 Jun 2013 21:56:56 -0500
Subject: [keps] orb13178.amsat
Message-ID: <460360D96D444F709D20733E452B9BB4@ray45af0265077>

SB KEPS @ AMSAT  $ORB13178.O
Orbital Elements  13178.OSCAR

HR AMSAT ORBITAL ELEMENTS FOR OSCAR SATELLITES
FROM WA5QGD FORT WORTH,TX June 27, 2013
BID: ORB13178.O
TO ALL RADIO AMATEURS BT

